{"type": "FeatureCollection", "features": [ {"type": "Feature", "properties": {"norad_id": 66484, "name": "STARLINK-35371", "group": "last-30-days", "lat": 34.91352068448584, "lon": -163.6196406564671, "alt_km": 410.36914383002477, "timestamp": "2025-12-13T18:50:03.171822+00:00", "meta": {"OBJECT_NAME": "STARLINK-35371", "OBJECT_ID": "2025-262AE", "EPOCH": "2025-12-12T16:01:32.219328", "MEAN_MOTION": 15.50574998, "ECCENTRICITY": 0.00014167, "INCLINATION": 43.0018, "RA_OF_ASC_NODE": 71.4158, "ARG_OF_PERICENTER": 278.2184, "MEAN_ANOMALY": 81.8515, "EPHEMERIS_TYPE": 0, "CLASSIFICATION_TYPE": "U", "NORAD_CAT_ID": 66484, "ELEMENT_SET_NO": 999, "REV_AT_EPOCH": 555, "BSTAR": 7.4960958e-05, "MEAN_MOTION_DOT": 4.058e-05, "MEAN_MOTION_DDOT": 0}, "tle": {"line1": "1 66484U 25262AE  25346.66773402  .00004058  00000+0  74961-4 0  9997", "line2": "2 66484  43.0018  71.4158 0001416 278.2184  81.8515 15.50574998  5552"}}, "geometry": {"type": "Point", "coordinates": [-163.6196406564671, 34.91352068448584]}}, {"type": "Feature", "properties": {"norad_id": 66485, "name": "STARLINK-34774", "group": "last-30-days", "lat": -29.802496509502685, "lon": -22.683528173530892, "alt_km": 446.3060002039538, "timestamp": "2025-12-13T18:50:03.171833+00:00", "meta": {"OBJECT_NAME": "STARLINK-34774", "OBJECT_ID": "2025-263A", "EPOCH": "2025-12-13T06:00:02.000160", "MEAN_MOTION": 15.40740464, "ECCENTRICITY": 0.00020009, "INCLINATION": 43.0001, "RA_OF_ASC_NODE": 122.4723, "ARG_OF_PERICENTER": 284.7964, "MEAN_ANOMALY": 212.5556, "EPHEMERIS_TYPE": 0, "CLASSIFICATION_TYPE": "U", "NORAD_CAT_ID": 66485, "ELEMENT_SET_NO": 999, "REV_AT_EPOCH": 571, "BSTAR": -0.0026327416, "MEAN_MOTION_DOT": -0.00108877, "MEAN_MOTION_DDOT": 0}, "tle": {"line1": "1 66485U 25263A   25347.25002315 -.00108877  00000+0 -26327-2 0  9990", "line2": "2 66485  43.0001 122.4723 0002000 284.7964 212.5556 15.40740464  5716"}}, "geometry": {"type": "Point", "coordinates": [-22.683528173530892, -29.802496509502685]}}, {"type": "Feature", "properties": {"norad_id": 66486, "name": "STARLINK-34844", "group": "last-30-days", "lat": 3.0081445624847976, "lon": 122.2880237108997, "alt_km": 413.3304552305117, "timestamp": "2025-12-13T18:50:03.171844+00:00", "meta": {"OBJECT_NAME": "STARLINK-34844", "OBJECT_ID": "2025-263B", "EPOCH": "2025-12-13T01:48:39.674880", "MEAN_MOTION": 15.50626513, "ECCENTRICITY": 8.111e-05, "INCLINATION": 43.0008, "RA_OF_ASC_NODE": 123.2058, "ARG_OF_PERICENTER": 5.4819, "MEAN_ANOMALY": 354.605, "EPHEMERIS_TYPE": 0, "CLASSIFICATION_TYPE": "U", "NORAD_CAT_ID": 66486, "ELEMENT_SET_NO": 999, "REV_AT_EPOCH": 556, "BSTAR": 0.0016487678, "MEAN_MOTION_DOT": 0.00097765, "MEAN_MOTION_DDOT": 0}, "tle": {"line1": "1 66486U 25263B   25347.07545920  .00097765  00000+0  16488-2 0  9993", "line2": "2 66486  43.0008 123.2058 0000811   5.4819 354.6050 15.50626513  5568"}}, "geometry": {"type": "Point", "coordinates": [122.2880237108997, 3.0081445624847976]}}, {"type": "Feature", "properties": {"norad_id": 66487, "name": "STARLINK-34733", "group": "last-30-days", "lat": -29.5141423590674, "lon": 81.76960265886918, "alt_km": 446.6457739973248, "timestamp": "2025-12-13T18:50:03.171855+00:00", "meta": {"OBJECT_NAME": "STARLINK-34733", "OBJECT_ID": "2025-263C", "EPOCH": "2025-12-13T06:00:02.000160", "MEAN_MOTION": 15.40989287, "ECCENTRICITY": 0.00014814, "INCLINATION": 43, "RA_OF_ASC_NODE": 122.2606, "ARG_OF_PERICENTER": 270.9148, "MEAN_ANOMALY": 313.3948, "EPHEMERIS_TYPE": 0, "CLASSIFICATION_TYPE": "U", "NORAD_CAT_ID": 66487, "ELEMENT_SET_NO": 999, "REV_AT_EPOCH": 571, "BSTAR": -0.012391876, "MEAN_MOTION_DOT": -0.00490706, "MEAN_MOTION_DDOT": 0}, "tle": {"line1": "1 66487U 25263C   25347.25002315 -.00490706  00000+0 -12392-1 0  9993", "line2": "2 66487  43.0000 122.2606 0001481 270.9148 313.3948 15.40989287  5711"}}, "geometry": {"type": "Point", "coordinates": [81.76960265886918, -29.5141423590674]}}, {"type": "Feature", "properties": {"norad_id": 66488, "name": "STARLINK-35515", "group": "last-30-days", "lat": 5.710692936146722, "lon": 125.20601036810045, "alt_km": 413.0671286465331, "timestamp": "2025-12-13T18:50:03.171866+00:00", "meta": {"OBJECT_NAME": "STARLINK-35515", "OBJECT_ID": "2025-263D", "EPOCH": "2025-12-13T01:47:40.130592", "MEAN_MOTION": 15.50632968, "ECCENTRICITY": 9.909e-05, "INCLINATION": 42.9998, "RA_OF_ASC_NODE": 123.2003, "ARG_OF_PERICENTER": 287.5067, "MEAN_ANOMALY": 72.5685, "EPHEMERIS_TYPE": 0, "CLASSIFICATION_TYPE": "U", "NORAD_CAT_ID": 66488, "ELEMENT_SET_NO": 999, "REV_AT_EPOCH": 561, "BSTAR": 0.0026570283, "MEAN_MOTION_DOT": 0.00159046, "MEAN_MOTION_DDOT": 0}, "tle": {"line1": "1 66488U 25263D   25347.07477003  .00159046  00000+0  26570-2 0  9995", "line2": "2 66488  42.9998 123.2003 0000990 287.5067  72.5685 15.50632968  5619"}}, "geometry": {"type": "Point", "coordinates": [125.20601036810045, 5.710692936146722]}}, {"type": "Feature", "properties": {"norad_id": 66489, "name": "STARLINK-35696", "group": "last-30-days", "lat": 6.940636349964664, "lon": 126.5475526527271, "alt_km": 413.3100161712664, "timestamp": "2025-12-13T18:50:03.171876+00:00", "meta": {"OBJECT_NAME": "STARLINK-35696", "OBJECT_ID": "2025-263E", "EPOCH": "2025-12-13T01:47:10.412448", "MEAN_MOTION": 15.50629016, "ECCENTRICITY": 0.00010218, "INCLINATION": 43.0017, "RA_OF_ASC_NODE": 123.1982, "ARG_OF_PERICENTER": 272.9052, "MEAN_ANOMALY": 87.1691, "EPHEMERIS_TYPE": 0, "CLASSIFICATION_TYPE": "U", "NORAD_CAT_ID": 66489, "ELEMENT_SET_NO": 999, "REV_AT_EPOCH": 561, "BSTAR": 0.0017654237, "MEAN_MOTION_DOT": 0.0010481, "MEAN_MOTION_DDOT": 0}, "tle": {"line1": "1 66489U 25263E   25347.07442607  .00104810  00000+0  17654-2 0  9990", "line2": "2 66489  43.0017 123.1982 0001021 272.9052  87.1691 15.50629016  5616"}}, "geometry": {"type": "Point", "coordinates": [126.5475526527271, 6.940636349964664]}}, {"type": "Feature", "properties": {"norad_id": 66490, "name": "STARLINK-35693", "group": "last-30-days", "lat": -42.63139737972937, "lon": 38.196965149705726, "alt_km": 446.68490248118724, "timestamp": "2025-12-13T18:50:03.171886+00:00", "meta": {"OBJECT_NAME": "STARLINK-35693", "OBJECT_ID": "2025-263F", "EPOCH": "2025-12-13T06:00:02.000160", "MEAN_MOTION": 15.40703566, "ECCENTRICITY": 0.000158, "INCLINATION": 43, "RA_OF_ASC_NODE": 122.349, "ARG_OF_PERICENTER": 279.477, "MEAN_ANOMALY": 267.7641, "EPHEMERIS_TYPE": 0, "CLASSIFICATION_TYPE": "U", "NORAD_CAT_ID": 66490, "ELEMENT_SET_NO": 999, "REV_AT_EPOCH": 571, "BSTAR": -0.0029060858, "MEAN_MOTION_DOT": -0.00119827, "MEAN_MOTION_DDOT": 0}, "tle": {"line1": "1 66490U 25263F   25347.25002315 -.00119827  00000+0 -29061-2 0  9991", "line2": "2 66490  43.0000 122.3490 0001580 279.4770 267.7641 15.40703566  5718"}}, "geometry": {"type": "Point", "coordinates": [38.196965149705726, -42.63139737972937]}}, {"type": "Feature", "properties": {"norad_id": 66491, "name": "STARLINK-35663", "group": "last-30-days", "lat": 10.893675928962178, "lon": 130.9444114264442, "alt_km": 411.65942708399143, "timestamp": "2025-12-13T18:50:03.171896+00:00", "meta": {"OBJECT_NAME": "STARLINK-35663", "OBJECT_ID": "2025-263G", "EPOCH": "2025-12-13T01:45:41.875776", "MEAN_MOTION": 15.50681978, "ECCENTRICITY": 0.00014353, "INCLINATION": 43.0005, "RA_OF_ASC_NODE": 123.1885, "ARG_OF_PERICENTER": 345.3433, "MEAN_ANOMALY": 14.7385, "EPHEMERIS_TYPE": 0, "CLASSIFICATION_TYPE": "U", "NORAD_CAT_ID": 66491, "ELEMENT_SET_NO": 999, "REV_AT_EPOCH": 561, "BSTAR": 0.0018947303, "MEAN_MOTION_DOT": 0.00112842, "MEAN_MOTION_DDOT": 0}, "tle": {"line1": "1 66491U 25263G   25347.07340134  .00112842  00000+0  18947-2 0  9995", "line2": "2 66491  43.0005 123.1885 0001435 345.3433  14.7385 15.50681978  5616"}}, "geometry": {"type": "Point", "coordinates": [130.9444114264442, 10.893675928962178]}}, {"type": "Feature", "properties": {"norad_id": 66492, "name": "STARLINK-35673", "group": "last-30-days", "lat": -40.33209587445935, "lon": 4.987144808342587, "alt_km": 446.4828279915955, "timestamp": "2025-12-13T18:50:03.171907+00:00", "meta": {"OBJECT_NAME": "STARLINK-35673", "OBJECT_ID": "2025-263H", "EPOCH": "2025-12-13T06:00:02.000160", "MEAN_MOTION": 15.40706915, "ECCENTRICITY": 0.0001566, "INCLINATION": 43, "RA_OF_ASC_NODE": 122.4095, "ARG_OF_PERICENTER": 276.352, "MEAN_ANOMALY": 245.9024, "EPHEMERIS_TYPE": 0, "CLASSIFICATION_TYPE": "U", "NORAD_CAT_ID": 66492, "ELEMENT_SET_NO": 999, "REV_AT_EPOCH": 571, "BSTAR": -0.0010936915, "MEAN_MOTION_DOT": -0.00045727, "MEAN_MOTION_DDOT": 0}, "tle": {"line1": "1 66492U 25263H   25347.25002315 -.00045727  00000+0 -10937-2 0  9992", "line2": "2 66492  43.0000 122.4095 0001566 276.3520 245.9024 15.40706915  5719"}}, "geometry": {"type": "Point", "coordinates": [4.987144808342587, -40.33209587445935]}}, {"type": "Feature", "properties": {"norad_id": 66493, "name": "STARLINK-35597", "group": "last-30-days", "lat": 13.465890359848423, "lon": 133.90556942752735, "alt_km": 411.9213814591685, "timestamp": "2025-12-13T18:50:03.171917+00:00", "meta": {"OBJECT_NAME": "STARLINK-35597", "OBJECT_ID": "2025-263J", "EPOCH": "2025-12-13T01:44:42.144000", "MEAN_MOTION": 15.50648813, "ECCENTRICITY": 0.00012774, "INCLINATION": 42.9993, "RA_OF_ASC_NODE": 123.1825, "ARG_OF_PERICENTER": 290.5792, "MEAN_ANOMALY": 69.4931, "EPHEMERIS_TYPE": 0, "CLASSIFICATION_TYPE": "U", "NORAD_CAT_ID": 66493, "ELEMENT_SET_NO": 999, "REV_AT_EPOCH": 561, "BSTAR": 0.002826773, "MEAN_MOTION_DOT": 0.00169554, "MEAN_MOTION_DDOT": 0}, "tle": {"line1": "1 66493U 25263J   25347.07271000  .00169554  00000+0  28268-2 0  9991", "line2": "2 66493  42.9993 123.1825 0001277 290.5792  69.4931 15.50648813  5614"}}, "geometry": {"type": "Point", "coordinates": [133.90556942752735, 13.465890359848423]}}]}